[{"OBJECT_NAME":"STARLINK-31568","OBJECT_ID":"2024-064Q","EPOCH":"2026-03-09T22:46:14.670624","MEAN_MOTION":15.27578305,"ECCENTRICITY":0.00013174,"INCLINATION":43.0078,"RA_OF_ASC_NODE":54.8624,"ARG_OF_PERICENTER":288.5744,"MEAN_ANOMALY":71.4964,"EPHEMERIS_TYPE":0,"CLASSIFICATION_TYPE":"U","NORAD_CAT_ID":59412,"ELEMENT_SET_NO":999,"REV_AT_EPOCH":10926,"BSTAR":1.8076951e-5,"MEAN_MOTION_DOT":2.35e-6,"MEAN_MOTION_DDOT":0},{"OBJECT_NAME":"OBJECT BD","OBJECT_ID":"2025-313BD","EPOCH":"2026-03-09T15:06:44.992224","MEAN_MOTION":15.3000236,"ECCENTRICITY":0.00072867,"INCLINATION":97.397,"RA_OF_ASC_NODE":145.285,"ARG_OF_PERICENTER":333.4514,"MEAN_ANOMALY":26.6352,"EPHEMERIS_TYPE":0,"CLASSIFICATION_TYPE":"U","NORAD_CAT_ID":67299,"ELEMENT_SET_NO":999,"REV_AT_EPOCH":1083,"BSTAR":0.0027633805,"MEAN_MOTION_DOT":0.0008101,"MEAN_MOTION_DDOT":0}]
